{
  "norad_id": 47788,
  "name": "STARLINK-2314",
  "history": [
    {
      "epoch": "2026-03-28T22:29:49.430688Z",
      "apogee_km": 472.2458325171956,
      "perigee_km": 469.18549119377167,
      "latitude_deg": 5.70169128385326e-05,
      "longitude_deg": -33.557576249983235,
      "height_km": 470.65222420299443,
      "semi_major_axis_km": 6848.852661855483,
      "eccentricity": 0.00022342,
      "inclination_deg": 53.1583,
      "raan_deg": 130.249,
      "arg_perigee_deg": 51.0817,
      "mean_anomaly_deg": 309.0384,
      "mean_motion_rev_day": 15.31708163
    },
    {
      "epoch": "2026-03-29T04:45:39.646656Z",
      "apogee_km": 472.1949569960616,
      "perigee_km": 469.03905115098496,
      "latitude_deg": 1.889803979339754e-05,
      "longitude_deg": -128.9887890147629,
      "height_km": 470.51794090787917,
      "semi_major_axis_km": 6848.754004073523,
      "eccentricity": 0.0002304,
      "inclination_deg": 53.1581,
      "raan_deg": 129.0343,
      "arg_perigee_deg": 50.8228,
      "mean_anomaly_deg": 309.2978,
      "mean_motion_rev_day": 15.3174126
    },
    {
      "epoch": "2026-03-30T04:14:58.568928Z",
      "apogee_km": 471.85937797549195,
      "perigee_km": 468.65569901038543,
      "latitude_deg": 4.684418828253664e-06,
      "longitude_deg": -126.83938388779106,
      "height_km": 470.1812251023304,
      "semi_major_axis_km": 6848.394538492938,
      "eccentricity": 0.0002339,
      "inclination_deg": 53.1582,
      "raan_deg": 124.4772,
      "arg_perigee_deg": 52.5498,
      "mean_anomaly_deg": 307.5716,
      "mean_motion_rev_day": 15.31861861
    },
    {
      "epoch": "2026-03-30T05:48:55.571040Z",
      "apogee_km": 471.8354979224323,
      "perigee_km": 468.6295022246668,
      "latitude_deg": 4.85442400075917e-05,
      "longitude_deg": -150.69516644703717,
      "height_km": 470.17360006955784,
      "semi_major_axis_km": 6848.369500073549,
      "eccentricity": 0.00023407,
      "inclination_deg": 53.1582,
      "raan_deg": 124.1732,
      "arg_perigee_deg": 53.3627,
      "mean_anomaly_deg": 306.759,
      "mean_motion_rev_day": 15.31870262
    },
    {
      "epoch": "2026-03-30T13:38:40.044192Z",
      "apogee_km": 471.6968619431127,
      "perigee_km": 468.4587520537707,
      "latitude_deg": -3.449544290396415e-05,
      "longitude_deg": 90.02844081865284,
      "height_km": 470.07558925716455,
      "semi_major_axis_km": 6848.214806998441,
      "eccentricity": 0.00023642,
      "inclination_deg": 53.1583,
      "raan_deg": 122.6537,
      "arg_perigee_deg": 56.2364,
      "mean_anomaly_deg": 303.8862,
      "mean_motion_rev_day": 15.31922167
    },
    {
      "epoch": "2026-03-30T21:28:23.639520Z",
      "apogee_km": 471.60320128939475,
      "perigee_km": 468.262986620367,
      "latitude_deg": -4.01482175063166e-05,
      "longitude_deg": -29.24352664146555,
      "height_km": 469.89315293118,
      "semi_major_axis_km": 6848.070093954881,
      "eccentricity": 0.00024388,
      "inclination_deg": 53.1584,
      "raan_deg": 121.1349,
      "arg_perigee_deg": 55.8516,
      "mean_anomaly_deg": 304.2716,
      "mean_motion_rev_day": 15.31970726
    },
    {
      "epoch": "2026-03-31T08:25:59.626848Z",
      "apogee_km": 472.0036702658699,
      "perigee_km": 468.45676391679353,
      "latitude_deg": 2.9202087473104947e-05,
      "longitude_deg": 163.7789673836454,
      "height_km": 469.6773962948303,
      "semi_major_axis_km": 6848.367217091331,
      "eccentricity": 0.00025896,
      "inclination_deg": 53.1585,
      "raan_deg": 119.0074,
      "arg_perigee_deg": 35.0912,
      "mean_anomaly_deg": 325.026,
      "mean_motion_rev_day": 15.31871028
    },
    {
      "epoch": "2026-04-01T18:52:32.792160Z",
      "apogee_km": 471.0992698711152,
      "perigee_km": 467.2784620379134,
      "latitude_deg": 4.135773852952987e-05,
      "longitude_deg": -0.9591155782592198,
      "height_km": 469.0741564574894,
      "semi_major_axis_km": 6847.3258659545145,
      "eccentricity": 0.000279,
      "inclination_deg": 53.1589,
      "raan_deg": 112.322,
      "arg_perigee_deg": 58.0169,
      "mean_anomaly_deg": 302.1104,
      "mean_motion_rev_day": 15.32220495
    },
    {
      "epoch": "2026-04-02T18:21:25.233696Z",
      "apogee_km": 470.7350395728099,
      "perigee_km": 466.9253870153343,
      "latitude_deg": -1.4701006310887905e-05,
      "longitude_deg": 1.2998970480508485,
      "height_km": 468.7419252851142,
      "semi_major_axis_km": 6846.967213294072,
      "eccentricity": 0.0002782,
      "inclination_deg": 53.1608,
      "raan_deg": 107.7639,
      "arg_perigee_deg": 58.837,
      "mean_anomaly_deg": 301.2904,
      "mean_motion_rev_day": 15.32340886
    },
    {
      "epoch": "2026-04-02T18:21:25.234560Z",
      "apogee_km": 470.7348341637953,
      "perigee_km": 466.9255924243507,
      "latitude_deg": -1.2334129405632959e-05,
      "longitude_deg": 1.299895201555249,
      "height_km": 468.7420315772779,
      "semi_major_axis_km": 6846.967213294072,
      "eccentricity": 0.00027817,
      "inclination_deg": 53.1608,
      "raan_deg": 107.7639,
      "arg_perigee_deg": 58.837,
      "mean_anomaly_deg": 301.2904,
      "mean_motion_rev_day": 15.32340886
    },
    {
      "epoch": "2026-04-03T00:37:05.943072Z",
      "apogee_km": 470.61581459679746,
      "perigee_km": 466.7579032252552,
      "latitude_deg": -2.9668651626268143e-05,
      "longitude_deg": -94.0937791311793,
      "height_km": 468.666236472069,
      "semi_major_axis_km": 6846.823858911026,
      "eccentricity": 0.00028173,
      "inclination_deg": 53.1591,
      "raan_deg": 106.547,
      "arg_perigee_deg": 61.5911,
      "mean_anomaly_deg": 298.5374,
      "mean_motion_rev_day": 15.32389011
    },
    {
      "epoch": "2026-04-04T07:55:23.587968Z",
      "apogee_km": 470.48177988426596,
      "perigee_km": 465.87201980922055,
      "latitude_deg": 1.0075889479746793e-06,
      "longitude_deg": 148.9688763221414,
      "height_km": 467.9468618326251,
      "semi_major_axis_km": 6846.313899846743,
      "eccentricity": 0.00033666,
      "inclination_deg": 53.1592,
      "raan_deg": 100.4688,
      "arg_perigee_deg": 60.742,
      "mean_anomaly_deg": 299.3918,
      "mean_motion_rev_day": 15.32560228
    },
    {
      "epoch": "2026-04-05T07:23:55.189824Z",
      "apogee_km": 469.68578417863864,
      "perigee_km": 465.6604478304271,
      "latitude_deg": 1.8650375463265763e-05,
      "longitude_deg": 151.3094116119071,
      "height_km": 467.9250707899804,
      "semi_major_axis_km": 6845.810116004533,
      "eccentricity": 0.000294,
      "inclination_deg": 53.1586,
      "raan_deg": 95.9051,
      "arg_perigee_deg": 71.3167,
      "mean_anomaly_deg": 288.8154,
      "mean_motion_rev_day": 15.32729403
    },
    {
      "epoch": "2026-04-06T05:18:24.782688Z",
      "apogee_km": 469.3180534946805,
      "perigee_km": 465.09064449119705,
      "latitude_deg": 1.3496620279363333e-06,
      "longitude_deg": 177.53275469954912,
      "height_km": 467.76002879587116,
      "semi_major_axis_km": 6845.341348992939,
      "eccentricity": 0.00030878,
      "inclination_deg": 53.1583,
      "raan_deg": 91.6515,
      "arg_perigee_deg": 80.7266,
      "mean_anomaly_deg": 279.4085,
      "mean_motion_rev_day": 15.32886847
    },
    {
      "epoch": "2026-04-07T06:20:27.561696Z",
      "apogee_km": 467.84015998231826,
      "perigee_km": 464.8149066585911,
      "latitude_deg": -3.137038697131403e-05,
      "longitude_deg": 156.11933424244154,
      "height_km": 466.5868350371799,
      "semi_major_axis_km": 6844.464533320454,
      "eccentricity": 0.000221,
      "inclination_deg": 53.1592,
      "raan_deg": 86.7778,
      "arg_perigee_deg": 65.0183,
      "mean_anomaly_deg": 295.1048,
      "mean_motion_rev_day": 15.33181414
    },
    {
      "epoch": "2026-04-07T15:43:40.855008Z",
      "apogee_km": 467.98324408078497,
      "perigee_km": 464.56103950988654,
      "latitude_deg": -4.661663987890806e-06,
      "longitude_deg": 13.109552739063234,
      "height_km": 467.07902461010775,
      "semi_major_axis_km": 6844.409141795335,
      "eccentricity": 0.00025,
      "inclination_deg": 53.1582,
      "raan_deg": 84.9589,
      "arg_perigee_deg": 86.972,
      "mean_anomaly_deg": 273.1568,
      "mean_motion_rev_day": 15.33200026
    },
    {
      "epoch": "2026-04-08T08:56:12.491520Z",
      "apogee_km": 467.7566893223038,
      "perigee_km": 464.2905326224818,
      "latitude_deg": 2.4482533545632456e-05,
      "longitude_deg": 110.92521368623744,
      "height_km": 467.1009663318981,
      "semi_major_axis_km": 6844.1606109723925,
      "eccentricity": 0.00025322,
      "inclination_deg": 53.1587,
      "raan_deg": 81.6131,
      "arg_perigee_deg": 95.963,
      "mean_anomaly_deg": 264.1661,
      "mean_motion_rev_day": 15.33283539
    },
    {
      "epoch": "2026-04-09T03:42:32.287968Z",
      "apogee_km": 467.4743763449351,
      "perigee_km": 464.03792071719454,
      "latitude_deg": 1.9830438455467322e-05,
      "longitude_deg": -175.0787228177112,
      "height_km": 466.90501182183243,
      "semi_major_axis_km": 6843.893148531064,
      "eccentricity": 0.00025106,
      "inclination_deg": 53.1588,
      "raan_deg": 77.9626,
      "arg_perigee_deg": 98.4151,
      "mean_anomaly_deg": 261.7136,
      "mean_motion_rev_day": 15.33373422
    },
    {
      "epoch": "2026-04-10T04:44:13.435872Z",
      "apogee_km": 467.1743054305689,
      "perigee_km": 463.794104045126,
      "latitude_deg": 5.770632708619077e-05,
      "longitude_deg": 163.60318546657837,
      "height_km": 466.6621236870923,
      "semi_major_axis_km": 6843.621204737848,
      "eccentricity": 0.00024696,
      "inclination_deg": 53.1591,
      "raan_deg": 73.0938,
      "arg_perigee_deg": 99.549,
      "mean_anomaly_deg": 260.5792,
      "mean_motion_rev_day": 15.3346482
    },
    {
      "epoch": "2026-04-11T21:24:16.359264Z",
      "apogee_km": 466.94718321899745,
      "perigee_km": 463.16973932437486,
      "latitude_deg": -7.516523754953053e-06,
      "longitude_deg": -95.99120123559918,
      "height_km": 466.4823957386517,
      "semi_major_axis_km": 6843.195461271686,
      "eccentricity": 0.000276,
      "inclination_deg": 53.1604,
      "raan_deg": 65.1818,
      "arg_perigee_deg": 106.1868,
      "mean_anomaly_deg": 253.9438,
      "mean_motion_rev_day": 15.33607927
    },
    {
      "epoch": "2026-04-13T06:14:51.782784Z",
      "apogee_km": 465.85145409463166,
      "perigee_km": 462.65263721578685,
      "latitude_deg": -4.329442775089999e-05,
      "longitude_deg": 123.62265238782167,
      "height_km": 465.4152431864862,
      "semi_major_axis_km": 6842.389045655209,
      "eccentricity": 0.00023375,
      "inclination_deg": 53.1594,
      "raan_deg": 58.7921,
      "arg_perigee_deg": 99.5459,
      "mean_anomaly_deg": 260.5807,
      "mean_motion_rev_day": 15.33879052
    }
  ]
}